0 SATCOM 3 DEB
1 32986U 79101M   13282.23824843 -.00000078  00000-0  00000+0 0  7034
2 32986 008.1267 169.4917 4828437 323.4731 282.9292 01.82659989 37977
0 SATCOM 3 DEB
1 32986U 79101M   13282.92086293 -.00000074  00000-0  10000-3 0  7041
2 32986 008.1257 169.3777 4827690 323.6429 011.7971 01.82658095 37996
0 SATCOM 3 DEB
1 32986U 79101M   13285.42266528 -.00000072  00000-0  00000+0 0  7043
2 32986 008.1304 169.1530 4827850 324.1000 216.8987 01.82660373 38036
0 SATCOM 3 DEB
1 32986U 79101M   13289.36045787 -.00000048  00000-0  00000+0 0  7056
2 32986 008.1342 168.7417 4827110 324.8646 286.2710 01.82660794 38109
0 SATCOM 3 DEB
1 32986U 79101M   13293.79967138 -.00000100  00000-0  00000+0 0  7061
2 32986 008.1381 168.2799 4826465 325.7220 325.3818 01.82660797 38185
